start=new Date('2022-07-29T00:00:00.000Z').valueOf();
sats=[{"CLASSIFICATION_TYPE":"U","FILE":"3524113","TLE_LINE2":"2 52566  53.2176 298.8012 0002038  38.1577  31.9935 15.08874376  1307","REF_FRAME":"TEME","MEAN_MOTION_DOT":"-0.00071627","SEMIMAJOR_AXIS":"6917.775","OBJECT_TYPE":"PAYLOAD","LAUNCH_DATE":"2022-05-13","INCLINATION":"53.2176","DECAY_DATE":null,"TIME_SYSTEM":"UTC","COUNTRY_CODE":"US","ECCENTRICITY":"0.00020380","ARG_OF_PERICENTER":"38.1577","MEAN_ANOMALY":"31.9935","CENTER_NAME":"EARTH","TLE_LINE1":"1 52566U 22051AK  22209.91667824 -.00071627  00000-0 -45231-2 0  9994","MEAN_ELEMENT_THEORY":"SGP4","RCS_SIZE":"LARGE","REV_AT_EPOCH":"130","MEAN_MOTION_DDOT":"0.0000000000000","SITE":"AFWTR","EPOCH":"2022-07-28T22:00:00.999936","BSTAR":"-0.00452310000000","OBJECT_ID":"2022-051AK","OBJECT_NAME":"STARLINK-3938","APOAPSIS":"541.050","EPHEMERIS_TYPE":"0","PERIOD":"95.435","MEAN_MOTION":"15.08874376","PERIAPSIS":"538.230","RA_OF_ASC_NODE":"298.8012","ELEMENT_SET_NO":"999","GP_ID":"209069317","NORAD_CAT_ID":"52566"},{"BSTAR":"-0.00195830000000","OBJECT_ID":"2022-051AL","OBJECT_NAME":"STARLINK-3929","APOAPSIS":"540.787","MEAN_MOTION_DDOT":"0.0000000000000","REV_AT_EPOCH":"1242","EPOCH":"2022-07-29T00:00:00.999648","SITE":"AFWTR","ELEMENT_SET_NO":"999","GP_ID":"209044367","NORAD_CAT_ID":"52567","EPHEMERIS_TYPE":"0","PERIOD":"95.437","RA_OF_ASC_NODE":"283.4378","PERIAPSIS":"538.690","MEAN_MOTION":"15.08842314","DECAY_DATE":null,"TIME_SYSTEM":"UTC","COUNTRY_CODE":"US","ECCENTRICITY":"0.00015160","INCLINATION":"53.2131","TLE_LINE2":"2 52567  53.2131 283.4378 0001516  50.2220 295.3777 15.08842314 12426","REF_FRAME":"TEME","CLASSIFICATION_TYPE":"U","FILE":"3524098","SEMIMAJOR_AXIS":"6917.873","OBJECT_TYPE":"PAYLOAD","LAUNCH_DATE":"2022-05-13","MEAN_MOTION_DOT":"-0.00031321","RCS_SIZE":"LARGE","MEAN_ELEMENT_THEORY":"SGP4","TLE_LINE1":"1 52567U 22051AL  22210.00001157 -.00031321  00000-0 -19583-2 0  9996","CENTER_NAME":"EARTH","ARG_OF_PERICENTER":"50.2220","MEAN_ANOMALY":"295.3777"},{"OBJECT_NAME":"STARLINK-3930","OBJECT_ID":"2022-051AM","APOAPSIS":"540.754","BSTAR":"0.00180590000000","EPOCH":"2022-07-29T00:00:00.999648","SITE":"AFWTR","MEAN_MOTION_DDOT":"0.0000000000000","REV_AT_EPOCH":"1242","GP_ID":"209044361","NORAD_CAT_ID":"52568","ELEMENT_SET_NO":"999","RA_OF_ASC_NODE":"283.4388","MEAN_MOTION":"15.08853881","PERIAPSIS":"538.652","EPHEMERIS_TYPE":"0","PERIOD":"95.437","TIME_SYSTEM":"UTC","DECAY_DATE":null,"COUNTRY_CODE":"US","ECCENTRICITY":"0.00015190","INCLINATION":"53.2127","SEMIMAJOR_AXIS":"6917.838","OBJECT_TYPE":"PAYLOAD","LAUNCH_DATE":"2022-05-13","MEAN_MOTION_DOT":"0.00028581","TLE_LINE2":"2 52568  53.2127 283.4388 0001519  49.7274 355.8285 15.08853881 12425","REF_FRAME":"TEME","FILE":"3524098","CLASSIFICATION_TYPE":"U","RCS_SIZE":"LARGE","MEAN_ELEMENT_THEORY":"SGP4","TLE_LINE1":"1 52568U 22051AM  22210.00001157  .00028581  00000-0  18059-2 0  9996","CENTER_NAME":"EARTH","ARG_OF_PERICENTER":"49.7274","MEAN_ANOMALY":"355.8285"},{"MEAN_MOTION":"15.08880633","PERIAPSIS":"538.451","RA_OF_ASC_NODE":"283.8119","PERIOD":"95.435","EPHEMERIS_TYPE":"0","NORAD_CAT_ID":"52569","GP_ID":"209069187","ELEMENT_SET_NO":"999","SITE":"AFWTR","EPOCH":"2022-07-28T22:00:00.999936","REV_AT_EPOCH":"130","MEAN_MOTION_DDOT":"0.0000000000000","APOAPSIS":"540.791","OBJECT_NAME":"STARLINK-3927","OBJECT_ID":"2022-051AN","BSTAR":"-0.00457980000000","MEAN_ANOMALY":"217.3770","ARG_OF_PERICENTER":"55.3002","CENTER_NAME":"EARTH","TLE_LINE1":"1 52569U 22051AN  22209.91667824 -.00072523  00000-0 -45798-2 0  9991","MEAN_ELEMENT_THEORY":"SGP4","RCS_SIZE":"LARGE","MEAN_MOTION_DOT":"-0.00072523","LAUNCH_DATE":"2022-05-13","OBJECT_TYPE":"PAYLOAD","SEMIMAJOR_AXIS":"6917.756","FILE":"3524113","CLASSIFICATION_TYPE":"U","REF_FRAME":"TEME","TLE_LINE2":"2 52569  53.2126 283.8119 0001691  55.3002 217.3770 15.08880633  1305","INCLINATION":"53.2126","COUNTRY_CODE":"US","ECCENTRICITY":"0.00016910","TIME_SYSTEM":"UTC","DECAY_DATE":null},{"REV_AT_EPOCH":"1242","MEAN_MOTION_DDOT":"0.0000000000000","SITE":"AFWTR","EPOCH":"2022-07-29T00:00:00.999648","BSTAR":"-0.00035934000000","OBJECT_NAME":"STARLINK-3924","OBJECT_ID":"2022-051AP","APOAPSIS":"540.900","EPHEMERIS_TYPE":"0","PERIOD":"95.439","MEAN_MOTION":"15.08824136","PERIAPSIS":"538.688","RA_OF_ASC_NODE":"283.4334","ELEMENT_SET_NO":"999","NORAD_CAT_ID":"52570","GP_ID":"209044365","FILE":"3524098","CLASSIFICATION_TYPE":"U","TLE_LINE2":"2 52570  53.2161 283.4334 0001599  53.1285  12.4451 15.08824136 12428","REF_FRAME":"TEME","MEAN_MOTION_DOT":"-0.00006000","SEMIMAJOR_AXIS":"6917.929","LAUNCH_DATE":"2022-05-13","OBJECT_TYPE":"PAYLOAD","INCLINATION":"53.2161","DECAY_DATE":null,"TIME_SYSTEM":"UTC","COUNTRY_CODE":"US","ECCENTRICITY":"0.00015990","ARG_OF_PERICENTER":"53.1285","MEAN_ANOMALY":"12.4451","CENTER_NAME":"EARTH","TLE_LINE1":"1 52570U 22051AP  22210.00001157 -.00006000  00000-0 -35934-3 0  9995","MEAN_ELEMENT_THEORY":"SGP4","RCS_SIZE":"LARGE"},{"PERIAPSIS":"530.510","MEAN_MOTION":"15.11432931","RA_OF_ASC_NODE":"283.3666","EPHEMERIS_TYPE":"0","PERIOD":"95.274","NORAD_CAT_ID":"52574","GP_ID":"209069318","ELEMENT_SET_NO":"999","SITE":"AFWTR","EPOCH":"2022-07-28T22:00:00.999936","REV_AT_EPOCH":"130","MEAN_MOTION_DDOT":"0.0000000000000","OBJECT_ID":"2022-051AQ","OBJECT_NAME":"STARLINK-3901","APOAPSIS":"533.152","BSTAR":"-0.06795200000000","ARG_OF_PERICENTER":"40.5428","MEAN_ANOMALY":"122.8180","CENTER_NAME":"EARTH","TLE_LINE1":"1 52574U 22051AQ  22209.91667824 -.01075373  00000-0 -67952-1 0  9999","MEAN_ELEMENT_THEORY":"SGP4","RCS_SIZE":"LARGE","MEAN_MOTION_DOT":"-0.01075373","SEMIMAJOR_AXIS":"6909.966","OBJECT_TYPE":"PAYLOAD","LAUNCH_DATE":"2022-05-13","CLASSIFICATION_TYPE":"U","FILE":"3524113","TLE_LINE2":"2 52574  53.2174 283.3666 0001912  40.5428 122.8180 15.11432931  1303","REF_FRAME":"TEME","INCLINATION":"53.2174","TIME_SYSTEM":"UTC","DECAY_DATE":null,"COUNTRY_CODE":"US","ECCENTRICITY":"0.00019120"},{"MEAN_MOTION_DDOT":"0.0000000000000","REV_AT_EPOCH":"1242","EPOCH":"2022-07-29T00:00:00.999648","SITE":"AFWTR","BSTAR":"0.00006211200000","APOAPSIS":"540.947","OBJECT_ID":"2022-051AR","OBJECT_NAME":"STARLINK-3920","PERIOD":"95.438","EPHEMERIS_TYPE":"0","RA_OF_ASC_NODE":"283.4303","PERIAPSIS":"538.568","MEAN_MOTION":"15.08836024","ELEMENT_SET_NO":"999","NORAD_CAT_ID":"52575","GP_ID":"209044362","REF_FRAME":"TEME","TLE_LINE2":"2 52575  53.2175 283.4303 0001719  45.6496  39.9043 15.08836024 12428","FILE":"3524098","CLASSIFICATION_TYPE":"U","LAUNCH_DATE":"2022-05-13","OBJECT_TYPE":"PAYLOAD","SEMIMAJOR_AXIS":"6917.893","MEAN_MOTION_DOT":"0.00000700","COUNTRY_CODE":"US","ECCENTRICITY":"0.00017190","DECAY_DATE":null,"TIME_SYSTEM":"UTC","INCLINATION":"53.2175","CENTER_NAME":"EARTH","MEAN_ANOMALY":"39.9043","ARG_OF_PERICENTER":"45.6496","RCS_SIZE":"LARGE","MEAN_ELEMENT_THEORY":"SGP4","TLE_LINE1":"1 52575U 22051AR  22210.00001157  .00000700  00000-0  62112-4 0  9998"},{"INCLINATION":"53.2166","TIME_SYSTEM":"UTC","DECAY_DATE":null,"COUNTRY_CODE":"US","ECCENTRICITY":"0.00016490","MEAN_MOTION_DOT":"-0.00000652","SEMIMAJOR_AXIS":"6917.818","OBJECT_TYPE":"PAYLOAD","LAUNCH_DATE":"2022-05-13","CLASSIFICATION_TYPE":"U","FILE":"3524098","TLE_LINE2":"2 52576  53.2166 283.4246 0001649  44.8012  75.5762 15.08860448 12423","REF_FRAME":"TEME","MEAN_ELEMENT_THEORY":"SGP4","TLE_LINE1":"1 52576U 22051AS  22210.00001157 -.00000652  00000-0 -22852-4 0  9994","RCS_SIZE":"LARGE","ARG_OF_PERICENTER":"44.8012","MEAN_ANOMALY":"75.5762","CENTER_NAME":"EARTH","OBJECT_ID":"2022-051AS","OBJECT_NAME":"STARLINK-3932","APOAPSIS":"540.824","BSTAR":"-0.00002285200000","SITE":"AFWTR","EPOCH":"2022-07-29T00:00:00.999648","REV_AT_EPOCH":"1242","MEAN_MOTION_DDOT":"0.0000000000000","NORAD_CAT_ID":"52576","GP_ID":"209044014","ELEMENT_SET_NO":"999","MEAN_MOTION":"15.08860448","PERIAPSIS":"538.542","RA_OF_ASC_NODE":"283.4246","EPHEMERIS_TYPE":"0","PERIOD":"95.436"},{"APOAPSIS":"540.881","OBJECT_ID":"2022-051AT","OBJECT_NAME":"STARLINK-3836","BSTAR":"-0.00165190000000","EPOCH":"2022-07-29T00:00:00.999648","SITE":"AFWTR","MEAN_MOTION_DDOT":"0.0000000000000","REV_AT_EPOCH":"1222","NORAD_CAT_ID":"52577","GP_ID":"209044015","ELEMENT_SET_NO":"999","RA_OF_ASC_NODE":"298.4330","MEAN_MOTION":"15.08839757","PERIAPSIS":"538.611","PERIOD":"95.438","EPHEMERIS_TYPE":"0","ECCENTRICITY":"0.00016410","COUNTRY_CODE":"US","DECAY_DATE":null,"TIME_SYSTEM":"UTC","INCLINATION":"53.2199","LAUNCH_DATE":"2022-05-13","OBJECT_TYPE":"PAYLOAD","SEMIMAJOR_AXIS":"6917.881","MEAN_MOTION_DOT":"-0.00026482","REF_FRAME":"TEME","TLE_LINE2":"2 52577  53.2199 298.4330 0001641  53.1864 149.8675 15.08839757 12225","CLASSIFICATION_TYPE":"U","FILE":"3524098","RCS_SIZE":"LARGE","TLE_LINE1":"1 52577U 22051AT  22210.00001157 -.00026482  00000-0 -16519-2 0  9995","MEAN_ELEMENT_THEORY":"SGP4","CENTER_NAME":"EARTH","MEAN_ANOMALY":"149.8675","ARG_OF_PERICENTER":"53.1864"},{"NORAD_CAT_ID":"52578","GP_ID":"209044360","ELEMENT_SET_NO":"999","RA_OF_ASC_NODE":"298.4301","MEAN_MOTION":"15.08826087","PERIAPSIS":"538.552","PERIOD":"95.438","EPHEMERIS_TYPE":"0","APOAPSIS":"541.023","OBJECT_NAME":"STARLINK-3833","OBJECT_ID":"2022-051AU","BSTAR":"-0.00057079000000","EPOCH":"2022-07-29T00:00:00.999648","SITE":"AFWTR","MEAN_MOTION_DDOT":"0.0000000000000","REV_AT_EPOCH":"1222","RCS_SIZE":"LARGE","MEAN_ELEMENT_THEORY":"SGP4","TLE_LINE1":"1 52578U 22051AU  22210.00001157 -.00009357  00000-0 -57079-3 0  9995","CENTER_NAME":"EARTH","MEAN_ANOMALY":"142.8190","ARG_OF_PERICENTER":"40.2572","COUNTRY_CODE":"US","ECCENTRICITY":"0.00017860","DECAY_DATE":null,"TIME_SYSTEM":"UTC","INCLINATION":"53.2192","LAUNCH_DATE":"2022-05-13","OBJECT_TYPE":"PAYLOAD","SEMIMAJOR_AXIS":"6917.923","MEAN_MOTION_DOT":"-0.00009357","REF_FRAME":"TEME","TLE_LINE2":"2 52578  53.2192 298.4301 0001786  40.2572 142.8190 15.08826087 12227","CLASSIFICATION_TYPE":"U","FILE":"3524098"}];
